ONEWEB-0611             
1 54674U 22166AJ  26195.12959029  .00000075  00000+0  14927-3 0  9990
2 54674  87.9235 238.6143 0002214  97.4033 262.7352 13.21826687175008
ONEWEB-0612             
1 54675U 22166AK  26195.14306561  .00000155  00000+0  34259-3 0  9999
2 54675  87.9248 238.6102 0001958  91.8095 268.3263 13.21827125174996
ONEWEB-0615             
1 54676U 22166AL  26195.19856179 -.00000037  00000+0 -12176-3 0  9995
2 54676  87.9235 238.6117 0002192 101.7213 258.4167 13.21823816175013
ONEWEB-0655             
1 54677U 22166AM  26195.17501441  .00000033  00000+0  48744-4 0  9998
2 54677  87.9233 238.6179 0001908 100.3234 259.8116 13.21823968175008
ONEWEB-0659             
1 54678U 22166AN  26195.11614038  .00000498  00000+0  11735-2 0  9993
2 54678  87.9238 238.6279 0002492 102.0284 258.1130 13.21828272175087
ONEWEB-0685             
1 54679U 22166AP  26195.19148413  .00000057  00000+0  10653-3 0  9991
2 54679  87.9232 238.6051 0001727  92.8852 267.2479 13.21848005174988
ONEWEB-0712             
1 54680U 22166AQ  26195.11492623 -.00000043  00000+0 -14710-3 0  9995
2 54680  87.9081 223.4260 0001788 106.3462 253.7866 13.16595073175609
ONEWEB-0714             
1 54681U 22166AR  26195.12120469  .00000017  00000+0  96274-5 0  9999
2 54681  87.9235 238.6172 0002012 105.0633 255.0723 13.21825847175099
ONEWEB-0532             
1 55140U 23004A   26194.98984609  .00000002  00000+0 -26955-4 0  9992
2 55140  87.9141   0.5314 0001975  82.8147 277.3209 13.17648726171118
ONEWEB-0533             
1 55141U 23004B   26194.83546186 -.00000390  00000+0 -11198-2 0  9993
2 55141  87.8962 345.3711 0001650  93.8676 266.2641 13.12442592171552
ONEWEB-0541             
1 55142U 23004C   26195.03877405  .00000430  00000+0  11773-2 0  9990
2 55142  87.8893  15.7129 0002034  89.0085 271.1275 13.11414990169460
ONEWEB-0543             
1 55143U 23004D   26194.87239796  .00000005  00000+0 -19231-4 0  9995
2 55143  87.9185 330.1614 0001875 105.0325 255.1014 13.18686543173210
ONEWEB-0544             
1 55144U 23004E   26194.94152726  .00000020  00000+0  18548-4 0  9997
2 55144  87.9186 330.1471 0002048 101.1703 258.9660 13.18686887173223
ONEWEB-0560             
1 55145U 23004F   26194.93478479  .00000016  00000+0  76684-5 0  9994
2 55145  87.9187 330.1378 0002073 104.8512 255.2850 13.18684481173237
ONEWEB-0565             
1 55146U 23004G   26194.92804652 -.00000006  00000+0 -47362-4 0  9991
2 55146  87.9177 330.1647 0002287  93.6858 266.4536 13.18687228173227
ONEWEB-0567             
1 55147U 23004H   26194.92129634 -.00000011  00000+0 -60151-4 0  9999
2 55147  87.9187 330.1523 0002256  98.7816 261.3572 13.18687594173228
ONEWEB-0569             
1 55148U 23004J   26194.82262537 -.00000297  00000+0 -84819-3 0  9991
2 55148  87.8989 314.9206 0002682 113.0142 247.1270 13.13471240173672
ONEWEB-0570             
1 55149U 23004K   26194.83698867  .00000004  00000+0 -23051-4 0  9999
2 55149  87.9187 330.1674 0002078  88.9658 271.1712 13.18686758173208
ONEWEB-0571             
1 55150U 23004L   26194.83025641  .00000357  00000+0  87312-3 0  9994
2 55150  87.9186 330.1677 0003151 102.1887 257.9598 13.18683713173211
ONEWEB-0572             
1 55151U 23004M   26195.02106047  .00000000  00000+0 -33333-4 0  9998
2 55151  87.9143   0.5265 0002037  91.7786 268.3579 13.17651009171012
ONEWEB-0573             
1 55152U 23004N   26194.89936360 -.00000063  00000+0 -19281-3 0  9997
2 55152  87.9184 330.1560 0002746  96.0056 264.1389 13.18687060173217
ONEWEB-0588             
1 55153U 23004P   26194.89263715 -.00000043  00000+0 -14121-3 0  9991
2 55153  87.9184 330.1570 0002182  86.5337 273.6045 13.18686318173218
ONEWEB-0598             
1 55154U 23004Q   26195.01673023  .00000229  00000+0  60976-3 0  9997
2 55154  87.8885  15.7254 0002503  99.8355 260.3056 13.11418453169413
ONEWEB-0599             
1 55155U 23004R   26194.98224002  .00000007  00000+0 -14366-4 0  9990
2 55155  87.9142   0.5329 0001864  99.8834 260.2508 13.17650305171017
ONEWEB-0614             
1 55156U 23004S   26195.01163850 -.00000002  00000+0 -42774-4 0  9999
2 55156  87.8882  15.7351 0001829  84.0791 276.0545 13.11418190169358
ONEWEB-0616             
1 55157U 23004T   26195.02442627  .00000040  00000+0  70145-4 0  9996
2 55157  87.9144   0.5284 0001730 122.4870 237.6429 13.17650931171235
ONEWEB-0617             
1 55158U 23004U   26194.99975765 -.00000404  00000+0 -11748-2 0  9994
2 55158  87.8887  15.7296 0001938  77.6677 282.4668 13.11419011169377
ONEWEB-0618             
1 55159U 23004V   26194.97276166  .00002060  00000+0  11348-3 0  9997
2 55159  86.9104 166.7586 0011900 179.3545 180.7712 15.13366198186317
ONEWEB-0619             
1 55160U 23004W   26194.98055263  .00000043  00000+0  77158-4 0  9994
2 55160  87.9154   0.5203 0001442  88.0551 272.0745 13.17650524171124
ONEWEB-0620             
1 55161U 23004X   26195.07096957 -.00000524  00000+0 -15143-2 0  9991
2 55161  87.8879  15.7226 0002125  90.7409 269.3962 13.11417484169354
ONEWEB-0621             
1 55162U 23004Y   26195.02181882  .00000442  00000+0  12117-2 0  9994
2 55162  87.8890  15.7236 0001735  83.3682 276.7644 13.11417646169322
